COSMOS 1953             
1 19210U 88050A   26063.32279921  .00013390  00000+0  48175-3 0  9999
2 19210  82.5119 163.6431 0012207 139.8688 220.3455 15.28411280 36967
SL-8 R/B                
1 19257U 88053B   26063.51956536  .00000374  00000+0  12970-3 0  9990
2 19257  74.0468 121.9967 0021320 302.0399 160.0341 14.38912365975855
COSMOS 1975             
1 19573U 88093A   26063.22397468  .00011540  00000+0  42076-3 0  9993
2 19573  82.5197 123.1719 0011695 182.1757 177.9433 15.27974687 18577
SL-14 R/B               
1 19574U 88093B   26063.48771285  .00000854  00000+0  95423-4 0  9996
2 19574  82.5295  46.9274 0022066  57.7631  65.2466 14.85649461   249
SL-16 R/B               
1 19650U 88102B   26063.46603380  .00000046  00000+0  47301-4 0  9995
2 19650  71.0000 162.4875 0013619   9.5875 350.5505 14.16149548926157
INTERCOSMOS 24          
1 20261U 89080A   26063.16309438  .00000905  00000+0  26921-3 0  9993
2 20261  82.6032 108.0033 1186813 305.6605  43.9526 12.59548100666105
SL-14 R/B               
1 20262U 89080C   26063.35452787  .00000876  00000+0  26100-3 0  9997
2 20262  82.5971 176.6101 1230365 196.9414 158.6880 12.50486052659483
DELTA 1 R/B             
1 20323U 89089B   26063.51659534  .00000492  00000+0  13001-3 0  9991
2 20323  97.0709 271.7780 0070148 138.0870 222.5728 14.50658344894989
ARIANE 40 R/B           
1 20443U 90005H   26063.18474325  .00000401  00000+0  14118-3 0  9990
2 20443  98.3095 124.0100 0009518 215.6942 144.3611 14.39866455892010
DELTA 2 R/B(1)          
1 20453U 90008B   26063.49710610  .00090827  00000+0  10876-2 0  9995
2 20453  35.6042 208.9123 0086560 210.6924 148.8729 15.55192361925328
COSMOS 2058             
1 20465U 90010A   26063.41753029  .00006484  00000+0  38343-3 0  9990
2 20465  82.4667  52.6218 0009768   0.8805 359.2440 15.11265820941447
SL-14 R/B               
1 20466U 90010B   26063.08882360  .00000557  00000+0  64601-4 0  9997
2 20466  82.4992 272.6512 0018891 321.9134  38.0744 14.83563470927655
SL-14 R/B               
1 20511U 90018B   26063.50634765  .00000775  00000+0  94251-4 0  9993
2 20511  82.5193 227.9347 0017606 107.8051 252.5086 14.82138670921814
HST                     
1 20580U 90037B   26063.13533952  .00010319  00000+0  34382-3 0  9998
2 20580  28.4703  77.8870 0001724  70.3509 289.7272 15.29378725772468
SL-16 R/B               
1 20625U 90046B   26063.11254067 -.00000180  00000+0 -68151-4 0  9992
2 20625  71.0000 309.6278 0016154 307.0897  52.8748 14.15014486847604
COSMOS 2084             
1 20663U 90055A   26063.20949153  .00004465  00000+0  32073-3 0  9992
2 20663  62.7926 354.2678 0017956 188.7602 171.3188 15.05611914935498
SL-6 R/B(2)             
1 20666U 90055D   26063.58368874  .00002776  00000+0  21563-3 0  9996
2 20666  62.7817 271.2152 0023967 345.7643  14.2778 15.03565724937424
